[{"OBJECT_NAME":"OBJECT B","OBJECT_ID":"2025-012B","EPOCH":"2026-03-09T17:03:25.729344","MEAN_MOTION":15.20202755,"ECCENTRICITY":0.00076819,"INCLINATION":97.4305,"RA_OF_ASC_NODE":143.2195,"ARG_OF_PERICENTER":262.0484,"MEAN_ANOMALY":97.9879,"EPHEMERIS_TYPE":0,"CLASSIFICATION_TYPE":"U","NORAD_CAT_ID":62726,"ELEMENT_SET_NO":999,"REV_AT_EPOCH":6313,"BSTAR":0.00027599398,"MEAN_MOTION_DOT":5.916e-5,"MEAN_MOTION_DDOT":0},{"OBJECT_NAME":"NOAA 16 DEB","OBJECT_ID":"2000-055DS","EPOCH":"2026-03-09T10:20:12.139584","MEAN_MOTION":15.17502784,"ECCENTRICITY":0.00045067,"INCLINATION":98.9649,"RA_OF_ASC_NODE":299.1853,"ARG_OF_PERICENTER":45.4311,"MEAN_ANOMALY":314.7285,"EPHEMERIS_TYPE":0,"CLASSIFICATION_TYPE":"U","NORAD_CAT_ID":41213,"ELEMENT_SET_NO":999,"REV_AT_EPOCH":53413,"BSTAR":0.0096847597,"MEAN_MOTION_DOT":0.00199382,"MEAN_MOTION_DDOT":0}]
